CCSDS_OMM_VERS = 2.0
CREATION_DATE  = 
ORIGINATOR     = 

OBJECT_NAME    = COSMOS 2151
OBJECT_ID      = 1991-042A
CENTER_NAME    = EARTH
REF_FRAME      = TEME
TIME_SYSTEM    = UTC
MEAN_ELEMENT_THEORY = SGP/SGP4

EPOCH          = 2025-11-24T09:46:40.607616
MEAN_MOTION    = 14.99590508
ECCENTRICITY   = .0013936
INCLINATION    = 82.4974
RA_OF_ASC_NODE = 185.1673
ARG_OF_PERICENTER = 58.0460
MEAN_ANOMALY   = 302.2116

EPHEMERIS_TYPE = 0
CLASSIFICATION_TYPE = U
NORAD_CAT_ID   = 21422
ELEMENT_SET_NO = 999
REV_AT_EPOCH   = 84741
BSTAR          = .1546E-3
MEAN_MOTION_DOT = .1932E-4
MEAN_MOTION_DDOT = 0

CCSDS_OMM_VERS = 2.0
CREATION_DATE  = 
ORIGINATOR     = 

OBJECT_NAME    = SL-14 R/B
OBJECT_ID      = 1991-042B
CENTER_NAME    = EARTH
REF_FRAME      = TEME
TIME_SYSTEM    = UTC
MEAN_ELEMENT_THEORY = SGP/SGP4

EPOCH          = 2025-11-24T09:55:42.136032
MEAN_MOTION    = 14.81713797
ECCENTRICITY   = .0015846
INCLINATION    = 82.4915
RA_OF_ASC_NODE = 318.9106
ARG_OF_PERICENTER = 223.3546
MEAN_ANOMALY   = 136.6423

EPHEMERIS_TYPE = 0
CLASSIFICATION_TYPE = U
NORAD_CAT_ID   = 21423
ELEMENT_SET_NO = 999
REV_AT_EPOCH   = 83748
BSTAR          = .60274E-4
MEAN_MOTION_DOT = .499E-5
MEAN_MOTION_DDOT = 0

CCSDS_OMM_VERS = 2.0
CREATION_DATE  = 
ORIGINATOR     = 

OBJECT_NAME    = ERS-1
OBJECT_ID      = 1991-050A
CENTER_NAME    = EARTH
REF_FRAME      = TEME
TIME_SYSTEM    = UTC
MEAN_ELEMENT_THEORY = SGP/SGP4

EPOCH          = 2025-11-24T00:53:36.762720
MEAN_MOTION    = 14.39343907
ECCENTRICITY   = .0032505
INCLINATION    = 98.7915
RA_OF_ASC_NODE = 338.6237
ARG_OF_PERICENTER = 154.0550
MEAN_ANOMALY   = 206.2275

EPHEMERIS_TYPE = 0
CLASSIFICATION_TYPE = U
NORAD_CAT_ID   = 21574
ELEMENT_SET_NO = 999
REV_AT_EPOCH   = 80053
BSTAR          = .13167E-3
MEAN_MOTION_DOT = .365E-5
MEAN_MOTION_DDOT = 0

CCSDS_OMM_VERS = 2.0
CREATION_DATE  = 
ORIGINATOR     = 

OBJECT_NAME    = ARIANE 40 R/B
OBJECT_ID      = 1991-050F
CENTER_NAME    = EARTH
REF_FRAME      = TEME
TIME_SYSTEM    = UTC
MEAN_ELEMENT_THEORY = SGP/SGP4

EPOCH          = 2025-11-24T03:09:06.117120
MEAN_MOTION    = 14.42790455
ECCENTRICITY   = .0003885
INCLINATION    = 98.2189
RA_OF_ASC_NODE = 19.2313
ARG_OF_PERICENTER = 51.0245
MEAN_ANOMALY   = 309.1291

EPHEMERIS_TYPE = 0
CLASSIFICATION_TYPE = U
NORAD_CAT_ID   = 21610
ELEMENT_SET_NO = 999
REV_AT_EPOCH   = 80377
BSTAR          = .13228E-3
MEAN_MOTION_DOT = .399E-5
MEAN_MOTION_DDOT = 0

CCSDS_OMM_VERS = 2.0
CREATION_DATE  = 
ORIGINATOR     = 

OBJECT_NAME    = INTERCOSMOS 25
OBJECT_ID      = 1991-086A
CENTER_NAME    = EARTH
REF_FRAME      = TEME
TIME_SYSTEM    = UTC
MEAN_ELEMENT_THEORY = SGP/SGP4

EPOCH          = 2025-11-24T05:22:44.076000
MEAN_MOTION    = 12.11638414
ECCENTRICITY   = .1487608
INCLINATION    = 82.6070
RA_OF_ASC_NODE = 13.7710
ARG_OF_PERICENTER = 344.3216
MEAN_ANOMALY   = 11.6109

EPHEMERIS_TYPE = 0
CLASSIFICATION_TYPE = U
NORAD_CAT_ID   = 21819
ELEMENT_SET_NO = 999
REV_AT_EPOCH   = 48391
BSTAR          = .22051E-3
MEAN_MOTION_DOT = .1125E-4
MEAN_MOTION_DDOT = 0

CCSDS_OMM_VERS = 2.0
CREATION_DATE  = 
ORIGINATOR     = 

OBJECT_NAME    = SL-8 R/B
OBJECT_ID      = 1992-008B
CENTER_NAME    = EARTH
REF_FRAME      = TEME
TIME_SYSTEM    = UTC
MEAN_ELEMENT_THEORY = SGP/SGP4

EPOCH          = 2025-11-24T03:16:22.685088
MEAN_MOTION    = 13.75953052
ECCENTRICITY   = .0036039
INCLINATION    = 82.9269
RA_OF_ASC_NODE = 346.2853
ARG_OF_PERICENTER = 70.4767
MEAN_ANOMALY   = 350.9656

EPHEMERIS_TYPE = 0
CLASSIFICATION_TYPE = U
NORAD_CAT_ID   = 21876
ELEMENT_SET_NO = 999
REV_AT_EPOCH   = 69490
BSTAR          = .11833E-3
MEAN_MOTION_DOT = .131E-5
MEAN_MOTION_DDOT = 0

CCSDS_OMM_VERS = 2.0
CREATION_DATE  = 
ORIGINATOR     = 

OBJECT_NAME    = SL-8 R/B
OBJECT_ID      = 1992-020B
CENTER_NAME    = EARTH
REF_FRAME      = TEME
TIME_SYSTEM    = UTC
MEAN_ELEMENT_THEORY = SGP/SGP4

EPOCH          = 2025-11-24T07:18:41.874048
MEAN_MOTION    = 13.75523487
ECCENTRICITY   = .0027784
INCLINATION    = 82.9316
RA_OF_ASC_NODE = 232.0052
ARG_OF_PERICENTER = 230.6834
MEAN_ANOMALY   = 252.2713

EPHEMERIS_TYPE = 0
CLASSIFICATION_TYPE = U
NORAD_CAT_ID   = 21938
ELEMENT_SET_NO = 999
REV_AT_EPOCH   = 68664
BSTAR          = .68093E-4
MEAN_MOTION_DOT = .81E-6
MEAN_MOTION_DDOT = 0

CCSDS_OMM_VERS = 2.0
CREATION_DATE  = 
ORIGINATOR     = 

OBJECT_NAME    = USA 81
OBJECT_ID      = 1992-023A
CENTER_NAME    = EARTH
REF_FRAME      = TEME
TIME_SYSTEM    = UTC
MEAN_ELEMENT_THEORY = SGP/SGP4

EPOCH          = 2025-11-24T09:09:15.023232
MEAN_MOTION    = 14.32317432
ECCENTRICITY   = .0002277
INCLINATION    = 85.0097
RA_OF_ASC_NODE = 192.1626
ARG_OF_PERICENTER = 67.0731
MEAN_ANOMALY   = 293.0701

EPHEMERIS_TYPE = 0
CLASSIFICATION_TYPE = U
NORAD_CAT_ID   = 21949
ELEMENT_SET_NO = 999
REV_AT_EPOCH   = 7971
BSTAR          = .68313E-4
MEAN_MOTION_DOT = .204E-5
MEAN_MOTION_DDOT = 0

CCSDS_OMM_VERS = 2.0
CREATION_DATE  = 
ORIGINATOR     = 

OBJECT_NAME    = COSMOS 2219
OBJECT_ID      = 1992-076A
CENTER_NAME    = EARTH
REF_FRAME      = TEME
TIME_SYSTEM    = UTC
MEAN_ELEMENT_THEORY = SGP/SGP4

EPOCH          = 2025-11-24T04:34:55.652160
MEAN_MOTION    = 14.14066848
ECCENTRICITY   = .001844
INCLINATION    = 71.0607
RA_OF_ASC_NODE = 238.6049
ARG_OF_PERICENTER = 353.2476
MEAN_ANOMALY   = 6.8395

EPHEMERIS_TYPE = 0
CLASSIFICATION_TYPE = U
NORAD_CAT_ID   = 22219
ELEMENT_SET_NO = 999
REV_AT_EPOCH   = 70346
BSTAR          = -.61113E-4
MEAN_MOTION_DOT = -.164E-5
MEAN_MOTION_DDOT = 0

CCSDS_OMM_VERS = 2.0
CREATION_DATE  = 
ORIGINATOR     = 

OBJECT_NAME    = SL-16 R/B
OBJECT_ID      = 1992-076B
CENTER_NAME    = EARTH
REF_FRAME      = TEME
TIME_SYSTEM    = UTC
MEAN_ELEMENT_THEORY = SGP/SGP4

EPOCH          = 2025-11-24T08:41:10.261248
MEAN_MOTION    = 14.16836585
ECCENTRICITY   = .0015111
INCLINATION    = 71.0012
RA_OF_ASC_NODE = 50.2432
ARG_OF_PERICENTER = 257.8984
MEAN_ANOMALY   = 167.9183

EPHEMERIS_TYPE = 0
CLASSIFICATION_TYPE = U
NORAD_CAT_ID   = 22220
ELEMENT_SET_NO = 999
REV_AT_EPOCH   = 70691
BSTAR          = .1324E-3
MEAN_MOTION_DOT = .218E-5
MEAN_MOTION_DDOT = 0

CCSDS_OMM_VERS = 2.0
CREATION_DATE  = 
ORIGINATOR     = 

OBJECT_NAME    = COSMOS 2221
OBJECT_ID      = 1992-080A
CENTER_NAME    = EARTH
REF_FRAME      = TEME
TIME_SYSTEM    = UTC
MEAN_ELEMENT_THEORY = SGP/SGP4

EPOCH          = 2025-11-24T10:05:22.897824
MEAN_MOTION    = 14.95659149
ECCENTRICITY   = .0014597
INCLINATION    = 82.5055
RA_OF_ASC_NODE = 19.8576
ARG_OF_PERICENTER = 180.2792
MEAN_ANOMALY   = 179.8424

EPHEMERIS_TYPE = 0
CLASSIFICATION_TYPE = U
NORAD_CAT_ID   = 22236
ELEMENT_SET_NO = 999
REV_AT_EPOCH   = 76505
BSTAR          = .20444E-3
MEAN_MOTION_DOT = .2302E-4
MEAN_MOTION_DDOT = 0

CCSDS_OMM_VERS = 2.0
CREATION_DATE  = 
ORIGINATOR     = 

OBJECT_NAME    = SL-16 R/B
OBJECT_ID      = 1992-093B
CENTER_NAME    = EARTH
REF_FRAME      = TEME
TIME_SYSTEM    = UTC
MEAN_ELEMENT_THEORY = SGP/SGP4

EPOCH          = 2025-11-24T03:46:53.419008
MEAN_MOTION    = 14.15427865
ECCENTRICITY   = .0002086
INCLINATION    = 71.0217
RA_OF_ASC_NODE = 225.8016
ARG_OF_PERICENTER = 126.8301
MEAN_ANOMALY   = 233.3014

EPHEMERIS_TYPE = 0
CLASSIFICATION_TYPE = U
NORAD_CAT_ID   = 22285
ELEMENT_SET_NO = 999
REV_AT_EPOCH   = 69822
BSTAR          = -.50549E-4
MEAN_MOTION_DOT = -.146E-5
MEAN_MOTION_DDOT = 0

