COSMOS 2151             
1 21422U 91042A   25328.40741444  .00001932  00000+0  15460-3 0  9998
2 21422  82.4974 185.1673 0013936  58.0460 302.2116 14.99590508847412
SL-14 R/B               
1 21423U 91042B   25328.41368213  .00000499  00000+0  60274-4 0  9990
2 21423  82.4915 318.9106 0015846 223.3546 136.6423 14.81713797837483
ERS-1                   
1 21574U 91050A   25328.03723106  .00000365  00000+0  13167-3 0  9990
2 21574  98.7915 338.6237 0032504 154.0550 206.2275 14.39343907800539
ARIANE 40 R/B           
1 21610U 91050F   25328.13132080  .00000399  00000+0  13228-3 0  9992
2 21610  98.2189  19.2313 0003884  51.0245 309.1291 14.42790455803779
INTERCOSMOS 25          
1 21819U 91086A   25328.22412125  .00001125  00000+0  22051-3 0  9995
2 21819  82.6070  13.7710 1487608 344.3216  11.6109 12.11638414483916
SL-8 R/B                
1 21876U 92008B   25328.13637368  .00000131  00000+0  11833-3 0  9993
2 21876  82.9269 346.2853 0036039  70.4767 350.9656 13.75953052694907
SL-8 R/B                
1 21938U 92020B   25328.30465132  .00000081  00000+0  68093-4 0  9998
2 21938  82.9316 232.0052 0027784 230.6834 252.2713 13.75523487686649
USA 81                  
1 21949U 92023A   25328.38142388  .00000204  00000+0  68313-4 0  9998
2 21949  85.0097 192.1626 0002277  67.0731 293.0701 14.32317432 79711
COSMOS 2219             
1 22219U 92076A   25328.19092190 -.00000164  00000+0 -61113-4 0  9999
2 22219  71.0607 238.6049 0018440 353.2476   6.8395 14.14066848703461
SL-16 R/B               
1 22220U 92076B   25328.36192432  .00000218  00000+0  13240-3 0  9995
2 22220  71.0012  50.2432 0015111 257.8984 167.9183 14.16836585706914
COSMOS 2221             
1 22236U 92080A   25328.42040391  .00002302  00000+0  20444-3 0  9990
2 22236  82.5055  19.8576 0014597 180.2792 179.8424 14.95659149765054
SL-16 R/B               
1 22285U 92093B   25328.15756272 -.00000146  00000+0 -50549-4 0  9996
2 22285  71.0217 225.8016 0002086 126.8301 233.3014 14.15427865698226
